ONEWEB-0520             
1 54138U 22138AB  24189.78792440  .00000033  00000+0  50263-4 0  9997
2 54138  87.9142  86.1272 0002332  68.5598 291.5784 13.19724179 84126
ONEWEB-0521             
1 54139U 22138AC  24189.21455912  .00000109  00000+0  23883-3 0  9997
2 54139  87.9141  86.2339 0001960  85.1821 274.9535 13.19724542 84023
ONEWEB-0522             
1 54140U 22138AD  24189.80055708  .00000195  00000+0  45512-3 0  9991
2 54140  87.9139  86.1190 0001942  73.6984 286.4362 13.19725005 84119
ONEWEB-0523             
1 54141U 22138AE  24189.34086326  .00000079  00000+0  16206-3 0  9990
2 54141  87.9197  55.6657 0001232 108.0454 252.0814 13.20771474 85609
ONEWEB-0524             
1 54142U 22138AF  24189.63283634  .00000033  00000+0  50269-4 0  9992
2 54142  87.9195  55.6109 0000965  50.5320 309.5898 13.20769966 86519
ONEWEB-0525             
1 54143U 22138AG  24189.21298346  .00000134  00000+0  30221-3 0  9990
2 54143  87.9143  86.2455 0002230  72.5862 287.5514 13.19724904 83180
ONEWEB-0526             
1 54144U 22138AH  24189.24614076  .00000060  00000+0  11730-3 0  9998
2 54144  87.9142  86.2339 0001971  73.4877 286.6472 13.19728523 83160
ONEWEB-0529             
1 54145U 22138AJ  24189.78003065  .00000005  00000+0 -19749-4 0  9997
2 54145  87.9149  86.1439 0002166  69.8552 290.2814 13.19725335 84120
